[{"OBJECT_NAME":"TIANMU-1 05","OBJECT_ID":"2023-039C","EPOCH":"2026-03-09T23:39:15.181632","MEAN_MOTION":15.44151126,"ECCENTRICITY":0.00038488,"INCLINATION":97.5163,"RA_OF_ASC_NODE":238.9649,"ARG_OF_PERICENTER":117.8981,"MEAN_ANOMALY":242.2657,"EPHEMERIS_TYPE":0,"CLASSIFICATION_TYPE":"U","NORAD_CAT_ID":55975,"ELEMENT_SET_NO":999,"REV_AT_EPOCH":16549,"BSTAR":0.00042337949,"MEAN_MOTION_DOT":0.00019332,"MEAN_MOTION_DDOT":0},{"OBJECT_NAME":"BANDWAGON-2 OBJECT V","OBJECT_ID":"2024-247V","EPOCH":"2026-03-09T10:44:24.989280","MEAN_MOTION":15.44431692,"ECCENTRICITY":0.00083159,"INCLINATION":44.9939,"RA_OF_ASC_NODE":91.7715,"ARG_OF_PERICENTER":16.2729,"MEAN_ANOMALY":343.8426,"EPHEMERIS_TYPE":0,"CLASSIFICATION_TYPE":"U","NORAD_CAT_ID":62396,"ELEMENT_SET_NO":999,"REV_AT_EPOCH":6801,"BSTAR":0.0008906217,"MEAN_MOTION_DOT":0.00042031,"MEAN_MOTION_DDOT":0}]
